IRIDIUM 116             
1 43072U 17083C   25140.69730645  .00000038  00000+0  65177-5 0  9998
2 43072  86.3944 126.1005 0002567  85.2668 274.8821 14.34217580387917
IRIDIUM 130             
1 43073U 17083D   25140.66559334  .00000039  00000+0  67970-5 0  9994
2 43073  86.3953 126.3508 0002702  90.3082 269.8423 14.34217634387851
IRIDIUM 151             
1 43074U 17083E   25140.70999124  .00000034  00000+0  49296-5 0  9991
2 43074  86.3946 126.1442 0002547  85.1807 274.9679 14.34217581387887
IRIDIUM 134             
1 43075U 17083F   25140.67827428  .00000193  00000+0  61926-4 0  9994
2 43075  86.3947 126.1601 0002595  92.2858 267.8635 14.34219583387847
IRIDIUM 137             
1 43076U 17083G   25140.69096281 -.00000006  00000+0 -90473-5 0  9997
2 43076  86.3954 126.2396 0002613  75.1451 285.0034 14.34217137387914
IRIDIUM 141             
1 43077U 17083H   25140.47531086 -.00000053  00000+0 -25923-4 0  9990
2 43077  86.3949 126.1828 0001997  91.7618 268.3807 14.34216883387886
IRIDIUM 153             
1 43078U 17083J   25140.77633465  .00000129  00000+0  39134-4 0  9999
2 43078  86.3946  94.5271 0001947  96.0492 264.0926 14.34218380389035
IRIDIUM 131             
1 43079U 17083K   25140.67193461 -.00000008  00000+0 -10008-4 0  9993
2 43079  86.3953 126.2605 0002052  86.2908 273.8522 14.34217320387849
